ONEWEB-0656             
1 55817U 23029X   25293.81264092  .00000051  00000+0  92515-4 0  9996
2 55817  87.9213 322.1649 0001730  80.5455 279.5874 13.20770747129555
ONEWEB-0657             
1 55818U 23029Y   25293.87098814  .00000161  00000+0  36982-3 0  9997
2 55818  87.9247 352.5997 0002391  83.7745 276.3660 13.19727814127345
ONEWEB-0658             
1 55819U 23029Z   25293.86626192  .00000153  00000+0  35093-3 0  9996
2 55819  87.9264 352.5449 0002195 108.5695 251.5677 13.19725665127355
ONEWEB-0660             
1 55820U 23029AA  25293.88845991  .00000304  00000+0  78509-3 0  9997
2 55820  87.9039 337.3585 0001675 106.2516 253.8798 13.14503384127961
ONEWEB-0661             
1 55821U 23029AB  25293.84721627 -.00000136  00000+0 -40119-3 0  9994
2 55821  87.9032 337.4367 0001554 105.5103 254.6199 13.14504949127944
ONEWEB-0662             
1 55822U 23029AC  25293.88210900  .00000212  00000+0  53708-3 0  9997
2 55822  87.9031 337.4347 0001742 108.0376 252.0944 13.14503377127990
ONEWEB-0663             
1 55823U 23029AD  25293.86260716  .00000107  00000+0  22992-3 0  9990
2 55823  87.9226 322.2165 0001854 108.6323 251.5011 13.20849135129554
ONEWEB-0664             
1 55824U 23029AE  25293.64848619  .00000082  00000+0  16945-3 0  9994
2 55824  87.9206 322.2735 0001505  92.9006 267.2300 13.20769605129527
